NORAD_CAT_ID,OBJECT_NAME,OBJECT_TYPE,EPOCH,MEAN_MOTION,ECCENTRICITY,INCLINATION,RA_OF_ASC_NODE,ARG_OF_PERICENTER,MEAN_ANOMALY,BSTAR,MEAN_MOTION_DOT,MEAN_MOTION_DDOT,TLE_LINE0,TLE_LINE1,TLE_LINE2,SEMIMAJOR_AXIS,PERIOD,APOGEE,PERIGEE,DECAYED
50841.0,STARLINK-3300,PAYLOAD,2023-02-25 15:02:40,15.08830804,0.0001864,53.2123,113.4074,114.6467,245.4719,0.00050478,7.753e-05,0.0,0 STARLINK-3300,1 50841U 22001AQ  23056.62685328  .00007753  00000-0  50478-3 0  9998,2 50841  53.2123 113.4074 0001864 114.6467 245.4719 15.08830804 62988,6917.908,95.438,541.063,538.484,0.0
50841.0,STARLINK-3300,PAYLOAD,2023-02-26 13:18:03,15.08860746,0.0001738,53.2138,109.2426,119.8192,240.2973,0.00090806,0.00014202,0.0,0 STARLINK-3300,1 50841U 22001AQ  23057.55420690  .00014202  00000-0  90806-3 0  9996,2 50841  53.2138 109.2426 0001738 119.8192 240.2973 15.08860746 63120,6917.817,95.436,540.884,538.48,0.0
50841.0,STARLINK-3300,PAYLOAD,2023-02-26 14:53:26,15.08867491,0.0001626,53.2138,108.9465,114.7458,245.3704,0.0010901,0.00017117,0.0,0 STARLINK-3300,1 50841U 22001AQ  23057.62044521  .00017117  00000-0  10901-2 0  9994,2 50841  53.2138 108.9465 0001626 114.7458 245.3704 15.08867491 64431,6917.796,95.436,540.786,538.537,0.0
50841.0,STARLINK-3300,PAYLOAD,2023-02-27 14:44:13,15.08899425,0.0001515,53.2143,104.4866,106.6988,253.417,0.002674,0.00042596,0.0,0 STARLINK-3300,1 50841U 22001AQ  23058.61404021  .00042596  00000-0  26740-2 0  9996,2 50841  53.2143 104.4866 0001515 106.6988 253.4170 15.08899425 64583,6917.699,95.434,540.612,538.516,0.0
50841.0,STARLINK-3300,PAYLOAD,2023-02-27 19:30:21,15.08858047,0.0002392,53.2148,103.602,220.7529,139.3285,0.00017555,2.508e-05,0.0,0 STARLINK-3300,1 50841U 22001AQ  23058.81275236  .00002508  00000-0  17555-3 0  9996,2 50841  53.2148 103.6020 0002392 220.7529 139.3285 15.08858047 63318,6917.825,95.436,541.345,538.035,0.0
50841.0,STARLINK-3300,PAYLOAD,2023-02-28 06:38:04,15.08878462,0.0001199,53.2148,101.5141,101.6036,258.509,0.0021447,0.00034046,0.0,0 STARLINK-3300,1 50841U 22001AQ  23059.27643692  .00034046  00000-0  21447-2 0  9998,2 50841  53.2148 101.5141 0001199 101.6036 258.5090 15.08878462 64685,6917.763,95.435,540.457,538.798,0.0
50841.0,STARLINK-3300,PAYLOAD,2023-02-28 08:13:27,15.08885349,0.0001203,53.2146,101.2165,99.9182,260.1946,0.0023078,0.00036678,0.0,0 STARLINK-3300,1 50841U 22001AQ  23059.34267475  .00036678  00000-0  23078-2 0  9992,2 50841  53.2146 101.2165 0001203  99.9182 260.1946 15.08885349 63391,6917.742,95.435,540.439,538.775,0.0
50841.0,STARLINK-3300,PAYLOAD,2023-02-28 19:21:09,15.08805656,0.0001806,53.2149,99.1356,97.3854,262.7344,-0.0028562,-0.00045416,0.0,0 STARLINK-3300,1 50841U 22001AQ  23059.80635750 -.00045416  00000-0 -28562-2 0  9993,2 50841  53.2149  99.1356 0001806  97.3854 262.7344 15.08805656 63469,6917.985,95.44,541.1,538.601,0.0
50841.0,STARLINK-3300,PAYLOAD,2023-03-01 09:39:39,15.0878028,7.8e-05,53.2148,96.4609,116.4863,243.6209,0.0015325,0.00024146,0.0,0 STARLINK-3300,1 50841U 22001AQ  23060.40254174  .00024146  00000-0  15325-2 0  9996,2 50841  53.2148  96.4609 0000780 116.4863 243.6209 15.08780280 64859,6918.063,95.441,540.468,539.388,0.0
50841.0,STARLINK-3300,PAYLOAD,2023-03-01 19:11:59,15.08807381,7.41e-05,53.2143,94.6761,120.0522,240.0543,0.0018114,0.00028632,0.0,0 STARLINK-3300,1 50841U 22001AQ  23060.79999241  .00028632  00000-0  18114-2 0  9992,2 50841  53.2143  94.6761 0000741 120.0522 240.0543 15.08807381 63610,6917.98,95.44,540.358,539.332,0.0
50841.0,STARLINK-3300,PAYLOAD,2023-03-02 01:33:32,15.08827261,6.99e-05,53.2152,93.4856,122.2866,237.8194,0.0019472,0.00030827,0.0,0 STARLINK-3300,1 50841U 22001AQ  23061.06495529  .00030827  00000-0  19472-2 0  9990,2 50841  53.2152  93.4856 0000699 122.2866 237.8194 15.08827261 64952,6917.919,95.438,540.268,539.301,0.0
50841.0,STARLINK-3300,PAYLOAD,2023-03-02 19:02:46,15.08853904,8.33e-05,53.2145,90.2137,108.0755,252.0328,0.00084746,0.0001323,0.0,0 STARLINK-3300,1 50841U 22001AQ  23061.79359137  .00013230  00000-0  84746-3 0  9990,2 50841  53.2145  90.2137 0000833 108.0755 252.0328 15.08853904 63769,6917.838,95.437,540.279,539.127,0.0
50841.0,STARLINK-3300,PAYLOAD,2023-03-03 09:21:13,15.08891558,7.19e-05,53.2139,87.538,108.7388,251.3682,0.0020711,0.00032874,0.0,0 STARLINK-3300,1 50841U 22001AQ  23062.38973807  .00032874  00000-0  20711-2 0  9998,2 50841  53.2139  87.5380 0000719 108.7388 251.3682 15.08891558 65150,6917.723,95.434,540.085,539.09,0.0
50841.0,STARLINK-3300,PAYLOAD,2023-03-03 18:53:31,15.08863889,0.0001016,53.2135,85.7536,102.197,257.9136,0.00058459,9.034e-05,0.0,0 STARLINK-3300,1 50841U 22001AQ  23062.78717556  .00009034  00000-0  58459-3 0  9992,2 50841  53.2135  85.7536 0001016 102.1970 257.9136 15.08863889 65214,6917.807,95.436,540.375,538.97,0.0
50841.0,STARLINK-3300,PAYLOAD,2023-03-04 12:22:45,15.08872667,0.0001233,53.2144,82.4819,90.7399,269.3734,0.0018715,0.00029649,0.0,0 STARLINK-3300,1 50841U 22001AQ  23063.51580787  .00029649  00000-0  18715-2 0  9992,2 50841  53.2144  82.4819 0001233  90.7399 269.3734 15.08872667 64023,6917.781,95.435,540.499,538.793,0.0
50841.0,STARLINK-3300,PAYLOAD,2023-03-05 04:16:38,15.08838879,0.000123,53.2147,79.508,100.729,259.384,0.001387,0.00021854,0.0,0 STARLINK-3300,1 50841U 22001AQ  23064.17821765  .00021854  00000-0  13870-2 0  9996,2 50841  53.2147  79.5080 0001230 100.7290 259.3840 15.08838879 65421,6917.884,95.438,540.6,538.898,0.0
50841.0,STARLINK-3300,PAYLOAD,2023-03-05 07:27:24,15.0883846,0.0001149,53.2143,78.913,89.5769,270.5354,0.0015938,0.00025167,0.0,0 STARLINK-3300,1 50841U 22001AQ  23064.31069877  .00025167  00000-0  15938-2 0  9998,2 50841  53.2143  78.9130 0001149  89.5769 270.5354 15.08838460 64149,6917.885,95.438,540.545,538.955,0.0
50841.0,STARLINK-3300,PAYLOAD,2023-03-06 05:42:48,15.08859227,0.0001346,53.2149,74.7501,93.2956,266.819,0.0011127,0.00017474,0.0,0 STARLINK-3300,1 50841U 22001AQ  23065.23805693  .00017474  00000-0  11127-2 0  9992,2 50841  53.2149  74.7501 0001346  93.2956 266.8190 15.08859227 65589,6917.822,95.436,540.618,538.755,0.0
50841.0,STARLINK-3300,PAYLOAD,2023-03-06 12:04:20,15.08872583,0.0001377,53.2146,73.5584,104.3255,255.789,0.001205,0.00018959,0.0,0 STARLINK-3300,1 50841U 22001AQ  23065.50301029  .00018959  00000-0  12050-2 0  9991,2 50841  53.2146  73.5584 0001377 104.3255 255.7890 15.08872583 64329,6917.781,95.435,540.598,538.693,0.0
50841.0,STARLINK-3300,PAYLOAD,2023-03-07 03:58:12,15.08839103,0.0001321,53.2147,70.5864,103.2748,256.8392,0.00021956,3.208e-05,0.0,0 STARLINK-3300,1 50841U 22001AQ  23066.16541933  .00003208  00000-0  21956-3 0  9991,2 50841  53.2147  70.5864 0001321 103.2748 256.8392 15.08839103 65727,6917.883,95.438,540.662,538.834,0.0
50841.0,STARLINK-3300,PAYLOAD,2023-03-07 16:41:18,15.08819985,0.0002859,53.2143,68.2059,80.3796,279.7519,0.0016686,0.00026354,0.0,0 STARLINK-3300,1 50841U 22001AQ  23066.69534967  .00026354  00000-0  16686-2 0  9998,2 50841  53.2143  68.2059 0002859  80.3796 279.7519 15.08819985 65808,6917.942,95.439,541.784,537.829,0.0
50841.0,STARLINK-3300,PAYLOAD,2023-03-08 16:32:04,15.08850102,0.0001643,53.2144,63.7456,87.5058,272.6123,0.001005,0.00015747,0.0,0 STARLINK-3300,1 50841U 22001AQ  23067.68894592  .00015747  00000-0  10050-2 0  9994,2 50841  53.2144  63.7456 0001643  87.5058 272.6123 15.08850102 65955,6917.85,95.437,540.851,538.578,0.0
50841.0,STARLINK-3300,PAYLOAD,2023-03-09 06:50:33,15.08849138,0.0001576,53.2154,61.0715,90.7486,269.3687,0.00057583,8.89e-05,0.0,0 STARLINK-3300,1 50841U 22001AQ  23068.28510481  .00008890  00000-0  57583-3 0  9997,2 50841  53.2154  61.0715 0001576  90.7486 269.3687 15.08849138 66047,6917.852,95.437,540.808,538.627,0.0
50841.0,STARLINK-3300,PAYLOAD,2023-03-09 16:22:51,15.08848143,0.0001464,53.2145,59.2846,96.248,263.8679,0.00059617,9.215e-05,0.0,0 STARLINK-3300,1 50841U 22001AQ  23068.68254389  .00009215  00000-0  59617-3 0  9995,2 50841  53.2145  59.2846 0001464  96.2480 263.8679 15.08848143 64809,6917.855,95.437,540.733,538.708,0.0
50841.0,STARLINK-3300,PAYLOAD,2023-03-10 05:05:56,15.08855566,0.0001172,53.2152,56.9053,87.2378,272.8748,0.00099373,0.00015569,0.0,0 STARLINK-3300,1 50841U 22001AQ  23069.21245913  .00015569  00000-0  99373-3 0  9990,2 50841  53.2152  56.9053 0001172  87.2378 272.8748 15.08855566 66180,6917.833,95.437,540.509,538.887,0.0
50841.0,STARLINK-3300,PAYLOAD,2023-03-10 16:13:38,15.08837581,0.0001585,53.2156,54.8242,82.1143,278.0029,-5.0125e-05,-1.086e-05,0.0,0 STARLINK-3300,1 50841U 22001AQ  23069.67614209 -.00001086  00000-0 -50125-4 0  9992,2 50841  53.2156  54.8242 0001585  82.1143 278.0029 15.08837581 66258,6917.888,95.438,540.849,538.656,0.0
50841.0,STARLINK-3300,PAYLOAD,2023-03-11 08:07:30,15.0883286,0.0001659,53.217,51.8482,83.836,276.2821,0.00042649,6.505e-05,0.0,0 STARLINK-3300,1 50841U 22001AQ  23070.33854868  .00006505  00000-0  42649-3 0  9994,2 50841  53.2170  51.8482 0001659  83.8360 276.2821 15.08832860 65050,6917.902,95.438,540.915,538.62,0.0
50841.0,STARLINK-3300,PAYLOAD,2023-03-12 04:47:31,15.08838553,0.0001403,53.2165,47.9821,69.0515,291.0627,0.00054684,8.425e-05,0.0,0 STARLINK-3300,1 50841U 22001AQ  23071.19967238  .00008425  00000-0  54684-3 0  9990,2 50841  53.2165  47.9821 0001403  69.0515 291.0627 15.08838553 66484,6917.885,95.438,540.72,538.779,0.0
50841.0,STARLINK-3300,PAYLOAD,2023-03-12 22:16:45,15.08849249,0.0001506,53.2164,44.7164,73.562,286.5538,0.00043985,6.721e-05,0.0,0 STARLINK-3300,1 50841U 22001AQ  23071.92830994  .00006721  00000-0  43985-3 0  9998,2 50841  53.2164  44.7164 0001506  73.5620 286.5538 15.08849249 65291,6917.852,95.437,540.759,538.675,0.0
50841.0,STARLINK-3300,PAYLOAD,2023-03-13 01:27:32,15.08849279,0.0001286,53.216,44.1205,88.8603,271.2536,0.00038368,5.825e-05,0.0,0 STARLINK-3300,1 50841U 22001AQ  23072.06078810  .00005825  00000-0  38368-3 0  9998,2 50841  53.2160  44.1205 0001286  88.8603 271.2536 15.08849279 65317,6917.852,95.437,540.607,538.827,0.0
